[{"OBJECT_NAME":"SL-8 R/B","OBJECT_ID":"1988-053B","EPOCH":"2026-03-12T07:14:21.262272","MEAN_MOTION":14.38917564,"ECCENTRICITY":0.00214698,"INCLINATION":74.0456,"RA_OF_ASC_NODE":107.6515,"ARG_OF_PERICENTER":286.5687,"MEAN_ANOMALY":151.0905,"EPHEMERIS_TYPE":0,"CLASSIFICATION_TYPE":"U","NORAD_CAT_ID":19257,"ELEMENT_SET_NO":999,"REV_AT_EPOCH":97697,"BSTAR":0.00010515227,"MEAN_MOTION_DOT":2.98e-6,"MEAN_MOTION_DDOT":0},{"OBJECT_NAME":"COSMOS 1975","OBJECT_ID":"1988-093A","EPOCH":"2026-03-12T03:32:41.119296","MEAN_MOTION":15.28107769,"ECCENTRICITY":0.00124008,"INCLINATION":82.5182,"RA_OF_ASC_NODE":115.2177,"ARG_OF_PERICENTER":155.1171,"MEAN_ANOMALY":205.0669,"EPHEMERIS_TYPE":0,"CLASSIFICATION_TYPE":"U","NORAD_CAT_ID":19573,"ELEMENT_SET_NO":999,"REV_AT_EPOCH":1978,"BSTAR":0.00025058788,"MEAN_MOTION_DOT":6.913e-5,"MEAN_MOTION_DDOT":0},{"OBJECT_NAME":"SL-14 R/B","OBJECT_ID":"1988-093B","EPOCH":"2026-03-12T07:11:01.316256","MEAN_MOTION":14.85660399,"ECCENTRICITY":0.00215814,"INCLINATION":82.531,"RA_OF_ASC_NODE":39.5938,"ARG_OF_PERICENTER":33.2673,"MEAN_ANOMALY":83.1539,"EPHEMERIS_TYPE":0,"CLASSIFICATION_TYPE":"U","NORAD_CAT_ID":19574,"ELEMENT_SET_NO":999,"REV_AT_EPOCH":140,"BSTAR":8.3358517e-5,"MEAN_MOTION_DOT":7.49e-6,"MEAN_MOTION_DDOT":0},{"OBJECT_NAME":"SL-16 R/B","OBJECT_ID":"1988-102B","EPOCH":"2026-03-12T07:21:22.955616","MEAN_MOTION":14.16153853,"ECCENTRICITY":0.00141374,"INCLINATION":70.9999,"RA_OF_ASC_NODE":145.9917,"ARG_OF_PERICENTER":357.5135,"MEAN_ANOMALY":2.5915,"EPHEMERIS_TYPE":0,"CLASSIFICATION_TYPE":"U","NORAD_CAT_ID":19650,"ELEMENT_SET_NO":999,"REV_AT_EPOCH":92726,"BSTAR":0.00016673374,"MEAN_MOTION_DOT":2.82e-6,"MEAN_MOTION_DDOT":0},{"OBJECT_NAME":"INTERCOSMOS 24","OBJECT_ID":"1989-080A","EPOCH":"2026-03-12T02:32:38.266944","MEAN_MOTION":12.59561642,"ECCENTRICITY":0.11866805,"INCLINATION":82.6022,"RA_OF_ASC_NODE":102.8305,"ARG_OF_PERICENTER":287.2065,"MEAN_ANOMALY":60.2687,"EPHEMERIS_TYPE":0,"CLASSIFICATION_TYPE":"U","NORAD_CAT_ID":20261,"ELEMENT_SET_NO":999,"REV_AT_EPOCH":66710,"BSTAR":0.00022805505,"MEAN_MOTION_DOT":7.66e-6,"MEAN_MOTION_DDOT":0},{"OBJECT_NAME":"SL-14 R/B","OBJECT_ID":"1989-080C","EPOCH":"2026-03-12T06:38:10.155552","MEAN_MOTION":12.50497375,"ECCENTRICITY":0.12306485,"INCLINATION":82.5974,"RA_OF_ASC_NODE":171.5263,"ARG_OF_PERICENTER":178.8389,"MEAN_ANOMALY":181.6078,"EPHEMERIS_TYPE":0,"CLASSIFICATION_TYPE":"U","NORAD_CAT_ID":20262,"ELEMENT_SET_NO":999,"REV_AT_EPOCH":66047,"BSTAR":0.00019364137,"MEAN_MOTION_DOT":6.6e-6,"MEAN_MOTION_DDOT":0},{"OBJECT_NAME":"DELTA 1 R/B","OBJECT_ID":"1989-089B","EPOCH":"2026-03-12T04:09:02.644128","MEAN_MOTION":14.50665274,"ECCENTRICITY":0.00705687,"INCLINATION":97.0704,"RA_OF_ASC_NODE":278.2168,"ARG_OF_PERICENTER":114.2803,"MEAN_ANOMALY":246.5788,"EPHEMERIS_TYPE":0,"CLASSIFICATION_TYPE":"U","NORAD_CAT_ID":20323,"ELEMENT_SET_NO":999,"REV_AT_EPOCH":89609,"BSTAR":0.00010964983,"MEAN_MOTION_DOT":4.1e-6,"MEAN_MOTION_DDOT":0},{"OBJECT_NAME":"ARIANE 40 R/B","OBJECT_ID":"1990-005H","EPOCH":"2026-03-12T04:13:46.025760","MEAN_MOTION":14.39872407,"ECCENTRICITY":0.00100059,"INCLINATION":98.3078,"RA_OF_ASC_NODE":131.7635,"ARG_OF_PERICENTER":190.9929,"MEAN_ANOMALY":169.1042,"EPHEMERIS_TYPE":0,"CLASSIFICATION_TYPE":"U","NORAD_CAT_ID":20443,"ELEMENT_SET_NO":999,"REV_AT_EPOCH":89316,"BSTAR":0.00011667445,"MEAN_MOTION_DOT":3.24e-6,"MEAN_MOTION_DDOT":0},{"OBJECT_NAME":"DELTA 2 R/B(1)","OBJECT_ID":"1990-008B","EPOCH":"2026-03-12T07:49:01.202304","MEAN_MOTION":15.56355952,"ECCENTRICITY":0.00845775,"INCLINATION":35.6034,"RA_OF_ASC_NODE":157.5488,"ARG_OF_PERICENTER":283.0537,"MEAN_ANOMALY":76.0768,"EPHEMERIS_TYPE":0,"CLASSIFICATION_TYPE":"U","NORAD_CAT_ID":20453,"ELEMENT_SET_NO":999,"REV_AT_EPOCH":92654,"BSTAR":0.00073191889,"MEAN_MOTION_DOT":0.00063321,"MEAN_MOTION_DDOT":0},{"OBJECT_NAME":"COSMOS 2058","OBJECT_ID":"1990-010A","EPOCH":"2026-03-12T07:06:55.982592","MEAN_MOTION":15.11348167,"ECCENTRICITY":0.0008956,"INCLINATION":82.4669,"RA_OF_ASC_NODE":44.8592,"ARG_OF_PERICENTER":335.9544,"MEAN_ANOMALY":24.1267,"EPHEMERIS_TYPE":0,"CLASSIFICATION_TYPE":"U","NORAD_CAT_ID":20465,"ELEMENT_SET_NO":999,"REV_AT_EPOCH":94263,"BSTAR":0.00028453469,"MEAN_MOTION_DOT":4.828e-5,"MEAN_MOTION_DDOT":0},{"OBJECT_NAME":"SL-14 R/B","OBJECT_ID":"1990-010B","EPOCH":"2026-03-12T01:08:26.276640","MEAN_MOTION":14.83570863,"ECCENTRICITY":0.00184387,"INCLINATION":82.4986,"RA_OF_ASC_NODE":265.1732,"ARG_OF_PERICENTER":293.9836,"MEAN_ANOMALY":65.9448,"EPHEMERIS_TYPE":0,"CLASSIFICATION_TYPE":"U","NORAD_CAT_ID":20466,"ELEMENT_SET_NO":999,"REV_AT_EPOCH":92883,"BSTAR":5.2504886e-5,"MEAN_MOTION_DOT":4.57e-6,"MEAN_MOTION_DDOT":0},{"OBJECT_NAME":"SL-14 R/B","OBJECT_ID":"1990-018B","EPOCH":"2026-03-11T20:45:44.998560","MEAN_MOTION":14.82147386,"ECCENTRICITY":0.00176536,"INCLINATION":82.5207,"RA_OF_ASC_NODE":221.056,"ARG_OF_PERICENTER":85.4792,"MEAN_ANOMALY":274.8438,"EPHEMERIS_TYPE":0,"CLASSIFICATION_TYPE":"U","NORAD_CAT_ID":20511,"ELEMENT_SET_NO":999,"REV_AT_EPOCH":92290,"BSTAR":7.0922902e-5,"MEAN_MOTION_DOT":5.9e-6,"MEAN_MOTION_DDOT":0},{"OBJECT_NAME":"HST","OBJECT_ID":"1990-037B","EPOCH":"2026-03-12T05:26:07.751040","MEAN_MOTION":15.29528665,"ECCENTRICITY":0.00018183,"INCLINATION":28.4723,"RA_OF_ASC_NODE":22.6938,"ARG_OF_PERICENTER":150.2149,"MEAN_ANOMALY":209.855,"EPHEMERIS_TYPE":0,"CLASSIFICATION_TYPE":"U","NORAD_CAT_ID":20580,"ELEMENT_SET_NO":999,"REV_AT_EPOCH":77370,"BSTAR":0.00028558864,"MEAN_MOTION_DOT":8.646e-5,"MEAN_MOTION_DDOT":0},{"OBJECT_NAME":"SL-16 R/B","OBJECT_ID":"1990-046B","EPOCH":"2026-03-12T00:43:13.787616","MEAN_MOTION":14.15011596,"ECCENTRICITY":0.00162464,"INCLINATION":70.9984,"RA_OF_ASC_NODE":292.9996,"ARG_OF_PERICENTER":296.4241,"MEAN_ANOMALY":63.5214,"EPHEMERIS_TYPE":0,"CLASSIFICATION_TYPE":"U","NORAD_CAT_ID":20625,"ELEMENT_SET_NO":999,"REV_AT_EPOCH":84872,"BSTAR":-6.9834214e-5,"MEAN_MOTION_DOT":-1.83e-6,"MEAN_MOTION_DDOT":0},{"OBJECT_NAME":"COSMOS 2084","OBJECT_ID":"1990-055A","EPOCH":"2026-03-12T01:06:53.618688","MEAN_MOTION":15.05666234,"ECCENTRICITY":0.00167136,"INCLINATION":62.7917,"RA_OF_ASC_NODE":327.5405,"ARG_OF_PERICENTER":190.575,"MEAN_ANOMALY":169.5001,"EPHEMERIS_TYPE":0,"CLASSIFICATION_TYPE":"U","NORAD_CAT_ID":20663,"ELEMENT_SET_NO":999,"REV_AT_EPOCH":93667,"BSTAR":0.00019090475,"MEAN_MOTION_DOT":2.576e-5,"MEAN_MOTION_DDOT":0},{"OBJECT_NAME":"SL-6 R/B(2)","OBJECT_ID":"1990-055D","EPOCH":"2026-03-11T21:35:00.404736","MEAN_MOTION":15.03606413,"ECCENTRICITY":0.0025157,"INCLINATION":62.7824,"RA_OF_ASC_NODE":246.336,"ARG_OF_PERICENTER":347.5743,"MEAN_ANOMALY":12.4732,"EPHEMERIS_TYPE":0,"CLASSIFICATION_TYPE":"U","NORAD_CAT_ID":20666,"ELEMENT_SET_NO":999,"REV_AT_EPOCH":93852,"BSTAR":0.00018378,"MEAN_MOTION_DOT":2.34e-5,"MEAN_MOTION_DDOT":0},{"OBJECT_NAME":"SL-8 R/B","OBJECT_ID":"1990-078B","EPOCH":"2026-03-11T23:52:13.738944","MEAN_MOTION":14.89145616,"ECCENTRICITY":0.03617337,"INCLINATION":82.9005,"RA_OF_ASC_NODE":249.2375,"ARG_OF_PERICENTER":6.2478,"MEAN_ANOMALY":354.3067,"EPHEMERIS_TYPE":0,"CLASSIFICATION_TYPE":"U","NORAD_CAT_ID":20775,"ELEMENT_SET_NO":999,"REV_AT_EPOCH":80964,"BSTAR":0.00046583266,"MEAN_MOTION_DOT":0.00015814,"MEAN_MOTION_DDOT":0}]
